NORAD_CAT_ID,OBJECT_NAME,OBJECT_TYPE,EPOCH,MEAN_MOTION,ECCENTRICITY,INCLINATION,RA_OF_ASC_NODE,ARG_OF_PERICENTER,MEAN_ANOMALY,BSTAR,MEAN_MOTION_DOT,MEAN_MOTION_DDOT,TLE_LINE0,TLE_LINE1,TLE_LINE2,SEMIMAJOR_AXIS,PERIOD,APOGEE,PERIGEE,DECAYED
53996.0,STARLINK-5131,PAYLOAD,2023-01-04 11:41:29,15.08842447,0.0002295999999999,53.2194,22.3194,37.8823,322.233,0.00017226,2.455e-05,0.0,0 STARLINK-5131,1 53996U 22125AJ  23004.48714417  .00002455  00000-0  17226-3 0  9996,2 53996  53.2194  22.3194 0002296  37.8823 322.2330 15.08842447 14383,6917.873000000001,95.437,541.326,538.15,0.0
53996.0,STARLINK-5131,PAYLOAD,2023-01-04 18:03:01,15.0884306,0.0002349,53.2194,21.1299,39.8679,320.2485,0.00010913,1.449e-05,0.0,0 STARLINK-5131,1 53996U 22125AJ  23004.75210518  .00001449  00000-0  10913-3 0  9997,2 53996  53.2194  21.1299 0002349  39.8679 320.2485 15.08843060 14354,6917.871,95.437,541.361,538.111,0.0
53996.0,STARLINK-5131,PAYLOAD,2023-01-05 00:24:33,15.08852368,0.0002085,53.2195,19.9403,35.9427,324.1705,0.00012023,1.626e-05,0.0,0 STARLINK-5131,1 53996U 22125AJ  23005.01705628  .00001626  00000-0  12023-3 0  9999,2 53996  53.2195  19.9403 0002085  35.9427 324.1705 15.08852368 14463,6917.843000000003,95.437,541.15,538.265,0.0
53996.0,STARLINK-5131,PAYLOAD,2023-01-05 09:56:51,15.08855791,0.0002133999999999,53.2193,18.1557,35.5411,324.5723,0.00017151,2.444e-05,0.0,0 STARLINK-5131,1 53996U 22125AJ  23005.41448994  .00002444  00000-0  17151-3 0  9999,2 53996  53.2193  18.1557 0002134  35.5411 324.5723 15.08855791 14452,6917.831999999999,95.437,541.173,538.221,0.0
53996.0,STARLINK-5131,PAYLOAD,2023-01-05 17:53:47,15.08856045,0.0002241,53.2193,16.6691,36.3847,323.7298,0.00012229,1.659e-05,0.0,0 STARLINK-5131,1 53996U 22125AJ  23005.74568844  .00001659  00000-0  12229-3 0  9990,2 53996  53.2193  16.6691 0002241  36.3847 323.7298 15.08856045 14502,6917.831,95.437,541.247,538.146,0.0
53996.0,STARLINK-5131,PAYLOAD,2023-01-06 06:36:53,15.08837184,0.0002201,53.2215,14.2895,38.5269,321.588,4.9521e-05,5e-06,0.0,0 STARLINK-5131,1 53996U 22125AJ  23006.27562057  .00000500  00000-0  49521-4 0  9999,2 53996  53.2215  14.2895 0002201  38.5269 321.5880 15.08837184 14657,6917.889,95.438,541.2769999999998,538.231,0.0
53996.0,STARLINK-5131,PAYLOAD,2023-01-06 12:58:27,15.08825462,0.0002013,53.2198,13.1006,39.29,320.8238,-0.0002006,-3.478e-05,0.0,0 STARLINK-5131,1 53996U 22125AJ  23006.54059558 -.00003478  00000-0 -20060-3 0  9991,2 53996  53.2198  13.1006 0002013  39.2900 320.8238 15.08825462 14699,6917.925,95.438,541.182,538.3969999999998,0.0
53996.0,STARLINK-5131,PAYLOAD,2023-01-07 00:06:09,15.08827886,0.0001814,53.2217,11.0186,26.8345,333.274,-0.00014625,-2.614e-05,0.0,0 STARLINK-5131,1 53996U 22125AJ  23007.00427347 -.00002614  00000-0 -14625-3 0  9999,2 53996  53.2217  11.0186 0001814  26.8345 333.2740 15.08827886 14766,6917.917,95.438,541.0369999999998,538.528,0.0
53996.0,STARLINK-5131,PAYLOAD,2023-01-07 06:27:40,15.08842969,0.0002266,53.2192,9.8315,36.1749,323.9396,-0.00010376,-1.939e-05,0.0,0 STARLINK-5131,1 53996U 22125AJ  23007.26922432 -.00001939  00000-0 -10376-3 0  9990,2 53996  53.2192   9.8315 0002266  36.1749 323.9396 15.08842969 14808,6917.871,95.437,541.304,538.169,0.0
53996.0,STARLINK-5131,PAYLOAD,2023-01-07 17:35:22,15.08848726,0.0002546,53.2194,7.7513,37.7308,322.3862,1.9996e-05,3e-07,0.0,0 STARLINK-5131,1 53996U 22125AJ  23007.73289682  .00000030  00000-0  19996-4 0  9992,2 53996  53.2194   7.7513 0002546  37.7308 322.3862 15.08848726 14871,6917.854,95.437,541.48,537.957,0.0
53996.0,STARLINK-5131,PAYLOAD,2023-01-08 03:07:41,15.08841202,0.0002792,53.216,5.9651,51.3824,308.7418,-3.5794e-05,-8.58e-06,0.0,0 STARLINK-5131,1 53996U 22125AJ  23008.13034530 -.00000858  00000-0 -35794-4 0  9991,2 53996  53.2160   5.9651 0002792  51.3824 308.7418 15.08841202 14939,6917.877,95.437,541.673,537.81,0.0
53996.0,STARLINK-5131,PAYLOAD,2023-01-08 09:29:14,15.08828503,0.0002214,53.2193,4.7752,40.5398,319.5759,0.00012413,1.687e-05,0.0,0 STARLINK-5131,1 53996U 22125AJ  23008.39531030  .00001687  00000-0  12413-3 0  9997,2 53996  53.2193   4.7752 0002214  40.5398 319.5759 15.08828503 14970,6917.916,95.438,541.312,538.249,0.0
53996.0,STARLINK-5131,PAYLOAD,2023-01-09 10:55:24,15.08841552,0.0002277,53.22,0.018,42.3515,317.7652,9.5046e-05,1.225e-05,0.0,0 STARLINK-5131,1 53996U 22125AJ  23009.45514726  .00001225  00000-0  95046-4 0  9990,2 53996  53.2200   0.0180 0002277  42.3515 317.7652 15.08841552 15133,6917.876,95.437,541.316,538.165,0.0
53996.0,STARLINK-5131,PAYLOAD,2023-01-09 15:41:33,15.08846147,0.0002286,53.2201,359.1261,40.953,319.1634,7.465e-05,9e-06,0.0,0 STARLINK-5131,1 53996U 22125AJ  23009.65386473  .00000900  00000-0  74650-4 0  9995,2 53996  53.2201 359.1261 0002286  40.9530 319.1634 15.08846147 15099,6917.861999999999,95.437,541.308,538.145,0.0
53996.0,STARLINK-5131,PAYLOAD,2023-01-10 09:10:48,15.08839839,0.0002244,53.22,355.8552,33.196,326.9173,2.8884e-05,1.71e-06,0.0,0 STARLINK-5131,1 53996U 22125AJ  23010.38250971  .00000171  00000-0  28884-4 0  9998,2 53996  53.2200 355.8552 0002244  33.1960 326.9173 15.08839839 15206,6917.880999999999,95.438,541.298,538.194,0.0
53996.0,STARLINK-5131,PAYLOAD,2023-01-10 15:32:21,15.08837032,0.0002202,53.22,354.6657,36.9969,323.1175,-2.516e-05,-6.89e-06,0.0,0 STARLINK-5131,1 53996U 22125AJ  23010.64747270 -.00000689  00000-0 -25160-4 0  9990,2 53996  53.2200 354.6657 0002202  36.9969 323.1175 15.08837032 15319,6917.889,95.438,541.278,538.231,0.0
53996.0,STARLINK-5131,PAYLOAD,2023-01-11 02:40:03,15.08843762,0.0002214,53.2195,352.5837,38.6472,321.4678,5.9902e-05,6.65e-06,0.0,0 STARLINK-5131,1 53996U 22125AJ  23011.11114608  .00000665  00000-0  59902-4 0  9999,2 53996  53.2195 352.5837 0002214  38.6472 321.4678 15.08843762 15383,6917.8690000000015,95.437,541.266,538.202,0.0
53996.0,STARLINK-5131,PAYLOAD,2023-01-11 05:50:49,15.0884635,0.0002276,53.2194,351.9889,38.73,321.3855,8.285200000000001e-05,1.031e-05,0.0,0 STARLINK-5131,1 53996U 22125AJ  23011.24362343  .00001031  00000-0  82852-4 0  9992,2 53996  53.2194 351.9889 0002276  38.7300 321.3855 15.08846350 15338,6917.861,95.437,541.3,538.151,0.0
53996.0,STARLINK-5131,PAYLOAD,2023-01-11 15:23:08,15.08837469,0.0002139,53.2198,350.2054,38.7828,321.3318,-2.9103e-05,-7.51e-06,0.0,0 STARLINK-5131,1 53996U 22125AJ  23011.64107213 -.00000751  00000-0 -29103-4 0  9999,2 53996  53.2198 350.2054 0002139  38.7828 321.3318 15.08837469 15460,6917.888000000001,95.438,541.2330000000002,538.273,0.0
53996.0,STARLINK-5131,PAYLOAD,2023-01-11 21:44:41,15.08833874,0.0002139,53.2196,349.0161,40.7268,319.3884,-3.8101e-05,-8.94e-06,0.0,0 STARLINK-5131,1 53996U 22125AJ  23011.90603573 -.00000894  00000-0 -38101-4 0  9994,2 53996  53.2196 349.0161 0002139  40.7268 319.3884 15.08833874 15432,6917.899,95.438,541.244,538.284,0.0
53996.0,STARLINK-5131,PAYLOAD,2023-01-12 15:13:56,15.08815248,0.0001999,53.2188,345.7453,50.0782,310.0385,0.0002581,3.819e-05,0.0,0 STARLINK-5131,1 53996U 22125AJ  23012.63468276  .00003819  00000-0  25810-3 0  9994,2 53996  53.2188 345.7453 0001999  50.0782 310.0385 15.08815248 15617,6917.956,95.439,541.2040000000002,538.438,0.0
53996.0,STARLINK-5131,PAYLOAD,2023-01-13 08:43:11,15.08827134,0.0002103,53.218,342.4729,51.5976,308.5204,-9.365e-05,-1.778e-05,0.0,0 STARLINK-5131,1 53996U 22125AJ  23013.36332976 -.00001778  00000-0 -93650-4 0  9994,2 53996  53.2180 342.4729 0002103  51.5976 308.5204 15.08827134 15651,6917.92,95.438,541.24,538.33,0.0
53996.0,STARLINK-5131,PAYLOAD,2023-01-13 15:04:43,15.08831545,0.000185,53.2179,341.2854,53.4957,306.6206,5.9962e-05,6.66e-06,0.0,0 STARLINK-5131,1 53996U 22125AJ  23013.62828313  .00000666  00000-0  59962-4 0  9999,2 53996  53.2179 341.2854 0001850  53.4957 306.6206 15.08831545 15767,6917.906,95.438,541.0509999999999,538.491,0.0
53996.0,STARLINK-5131,PAYLOAD,2023-01-13 21:26:16,15.08825589,0.0001948,53.2179,340.0961,57.2821,302.8359,2.9464e-05,1.81e-06,0.0,0 STARLINK-5131,1 53996U 22125AJ  23013.89325071  .00000181  00000-0  29464-4 0  9997,2 53996  53.2179 340.0961 0001948  57.2821 302.8359 15.08825589 15738,6917.924,95.438,541.137,538.442,0.0
53996.0,STARLINK-5131,PAYLOAD,2023-01-14 06:58:34,15.08845428,0.0001896,53.2171,338.3088,61.6919,298.4264,7.008e-05,8.28e-06,0.0,0 STARLINK-5131,1 53996U 22125AJ  23014.29067857  .00000828  00000-0  70080-4 0  9995,2 53996  53.2171 338.3088 0001896  61.6919 298.4264 15.08845428 15862,6917.8640000000005,95.437,541.04,538.4169999999999,0.0
53996.0,STARLINK-5131,PAYLOAD,2023-01-15 06:49:20,15.08853741,0.0001636,53.2155,333.8501,70.2489,289.868,0.00022858,3.353e-05,0.0,0 STARLINK-5131,1 53996U 22125AJ  23015.28427003  .00003353  00000-0  22858-3 0  9993,2 53996  53.2155 333.8501 0001636  70.2489 289.8680 15.08853741 15946,6917.838000000001,95.437,540.835,538.572,0.0
53996.0,STARLINK-5131,PAYLOAD,2023-01-16 03:29:21,15.08869274,0.0001307,53.2139,329.9853,74.4699,285.6437,0.00051254,7.885e-05,0.0,0 STARLINK-5131,1 53996U 22125AJ  23016.14538572  .00007885  00000-0  51254-3 0  9999,2 53996  53.2139 329.9853 0001307  74.4699 285.6437 15.08869274 16075,6917.791,95.436,540.56,538.752,0.0
53996.0,STARLINK-5131,PAYLOAD,2023-01-16 20:58:37,15.08831493,0.0001699999999999,53.2154,326.7119,77.7841,282.3342,-0.00028053,-4.749e-05,0.0,0 STARLINK-5131,1 53996U 22125AJ  23016.87404340 -.00004749  00000-0 -28053-3 0  9993,2 53996  53.2154 326.7119 0001700  77.7841 282.3342 15.08831493 16187,6917.906,95.438,540.947,538.595,0.0
53996.0,STARLINK-5131,PAYLOAD,2023-01-17 03:20:10,15.08815983,0.0001950999999999,53.2144,325.5251,69.7698,290.3504,-0.0004493,-7.427e-05,0.0,0 STARLINK-5131,1 53996U 22125AJ  23017.13901330 -.00007427  00000-0 -44930-3 0  9992,2 53996  53.2144 325.5251 0001951  69.7698 290.3504 15.08815983 16296,6917.954000000001,95.439,541.168,538.469,0.0
